{"type": "FeatureCollection", "features": [ {"type": "Feature", "properties": {"norad_id": 44543, "name": "BEIDOU-3 M23 (C45)", "group": "beidou", "lat": -5.081689367832292, "lon": -175.00235155876203, "alt_km": 21514.943353182432, "timestamp": "2025-12-22T16:55:17.728558+00:00", "meta": {"OBJECT_NAME": "BEIDOU-3 M23 (C45)", "OBJECT_ID": "2019-061B", "EPOCH": "2025-12-22T04:16:38.631360", "MEAN_MOTION": 1.86227761, "ECCENTRICITY": 0.00060882, "INCLINATION": 54.3995, "RA_OF_ASC_NODE": 188.6659, "ARG_OF_PERICENTER": 26.1092, "MEAN_ANOMALY": 334.4978, "EPHEMERIS_TYPE": 0, "CLASSIFICATION_TYPE": "U", "NORAD_CAT_ID": 44543, "ELEMENT_SET_NO": 999, "REV_AT_EPOCH": 4250, "BSTAR": 0, "MEAN_MOTION_DOT": 9.4e-07, "MEAN_MOTION_DDOT": 0}, "tle": {"line1": "1 44543U 19061B   25356.17822490  .00000094  00000+0  00000+0 0  9992", "line2": "2 44543  54.3995 188.6659 0006088  26.1092 334.4978  1.86227761 42501"}}, "geometry": {"type": "Point", "coordinates": [-175.00235155876203, -5.081689367832292]}}, {"type": "Feature", "properties": {"norad_id": 44793, "name": "BEIDOU-3 M22 (C44)", "group": "beidou", "lat": -6.801141726954208, "lon": 130.96624532608743, "alt_km": 21545.378987964512, "timestamp": "2025-12-22T16:55:17.728569+00:00", "meta": {"OBJECT_NAME": "BEIDOU-3 M22 (C44)", "OBJECT_ID": "2019-078A", "EPOCH": "2025-12-21T21:17:38.113152", "MEAN_MOTION": 1.86232212, "ECCENTRICITY": 0.0006079, "INCLINATION": 54.0999, "RA_OF_ASC_NODE": 306.0653, "ARG_OF_PERICENTER": 23.9772, "MEAN_ANOMALY": 336.0508, "EPHEMERIS_TYPE": 0, "CLASSIFICATION_TYPE": "U", "NORAD_CAT_ID": 44793, "ELEMENT_SET_NO": 999, "REV_AT_EPOCH": 4134, "BSTAR": 0, "MEAN_MOTION_DOT": -5.9e-07, "MEAN_MOTION_DDOT": 0}, "tle": {"line1": "1 44793U 19078A   25355.88724668 -.00000059  00000+0  00000+0 0  9994", "line2": "2 44793  54.0999 306.0653 0006079  23.9772 336.0508  1.86232212 41344"}}, "geometry": {"type": "Point", "coordinates": [130.96624532608743, -6.801141726954208]}}, {"type": "Feature", "properties": {"norad_id": 44794, "name": "BEIDOU-3 M21 (C43)", "group": "beidou", "lat": 53.662750684427614, "lon": 46.04003987387827, "alt_km": 21520.663272359325, "timestamp": "2025-12-22T16:55:17.728581+00:00", "meta": {"OBJECT_NAME": "BEIDOU-3 M21 (C43)", "OBJECT_ID": "2019-078B", "EPOCH": "2025-12-22T00:36:11.320992", "MEAN_MOTION": 1.86227905, "ECCENTRICITY": 0.00042975, "INCLINATION": 54.0732, "RA_OF_ASC_NODE": 306.0255, "ARG_OF_PERICENTER": 12.7987, "MEAN_ANOMALY": 347.2125, "EPHEMERIS_TYPE": 0, "CLASSIFICATION_TYPE": "U", "NORAD_CAT_ID": 44794, "ELEMENT_SET_NO": 999, "REV_AT_EPOCH": 4135, "BSTAR": 0, "MEAN_MOTION_DOT": -5.8e-07, "MEAN_MOTION_DDOT": 0}, "tle": {"line1": "1 44794U 19078B   25356.02513103 -.00000058  00000+0  00000+0 0  9991", "line2": "2 44794  54.0732 306.0255 0004297  12.7987 347.2125  1.86227905 41355"}}, "geometry": {"type": "Point", "coordinates": [46.04003987387827, 53.662750684427614]}}, {"type": "Feature", "properties": {"norad_id": 44864, "name": "BEIDOU-3 M19 (C41)", "group": "beidou", "lat": -50.7202700166063, "lon": 14.390778889950814, "alt_km": 21482.86176134672, "timestamp": "2025-12-22T16:55:17.728592+00:00", "meta": {"OBJECT_NAME": "BEIDOU-3 M19 (C41)", "OBJECT_ID": "2019-090A", "EPOCH": "2025-12-22T06:47:40.337664", "MEAN_MOTION": 1.8623164, "ECCENTRICITY": 0.00183372, "INCLINATION": 56.4008, "RA_OF_ASC_NODE": 68.6452, "ARG_OF_PERICENTER": 285.1073, "MEAN_ANOMALY": 83.7045, "EPHEMERIS_TYPE": 0, "CLASSIFICATION_TYPE": "U", "NORAD_CAT_ID": 44864, "ELEMENT_SET_NO": 999, "REV_AT_EPOCH": 4094, "BSTAR": 0, "MEAN_MOTION_DOT": -2.9e-07, "MEAN_MOTION_DDOT": 0}, "tle": {"line1": "1 44864U 19090A   25356.28310576 -.00000029  00000+0  00000+0 0  9998", "line2": "2 44864  56.4008  68.6452 0018337 285.1073  83.7045  1.86231640 40945"}}, "geometry": {"type": "Point", "coordinates": [14.390778889950814, -50.7202700166063]}}, {"type": "Feature", "properties": {"norad_id": 44865, "name": "BEIDOU-3 M20 (C42)", "group": "beidou", "lat": 17.741783743398617, "lon": 80.9470574455118, "alt_km": 21521.593128567423, "timestamp": "2025-12-22T16:55:17.728603+00:00", "meta": {"OBJECT_NAME": "BEIDOU-3 M20 (C42)", "OBJECT_ID": "2019-090B", "EPOCH": "2025-12-22T03:27:20.583072", "MEAN_MOTION": 1.86231562, "ECCENTRICITY": 0.00154748, "INCLINATION": 56.4023, "RA_OF_ASC_NODE": 68.6841, "ARG_OF_PERICENTER": 297.2268, "MEAN_ANOMALY": 67.9266, "EPHEMERIS_TYPE": 0, "CLASSIFICATION_TYPE": "U", "NORAD_CAT_ID": 44865, "ELEMENT_SET_NO": 999, "REV_AT_EPOCH": 4092, "BSTAR": 0, "MEAN_MOTION_DOT": -3e-07, "MEAN_MOTION_DDOT": 0}, "tle": {"line1": "1 44865U 19090B   25356.14398823 -.00000030  00000+0  00000+0 0  9997", "line2": "2 44865  56.4023  68.6841 0015474 297.2268  67.9266  1.86231562 40924"}}, "geometry": {"type": "Point", "coordinates": [80.9470574455118, 17.741783743398617]}}, {"type": "Feature", "properties": {"norad_id": 45344, "name": "BEIDOU-3 G2 (C60)", "group": "beidou", "lat": 0.9374788984335575, "lon": 65.35705412678126, "alt_km": 35793.1522941752, "timestamp": "2025-12-22T16:55:17.728615+00:00", "meta": {"OBJECT_NAME": "BEIDOU-3 G2 (C60)", "OBJECT_ID": "2020-017A", "EPOCH": "2025-12-19T13:38:45.370752", "MEAN_MOTION": 1.00273166, "ECCENTRICITY": 0.0002079, "INCLINATION": 2.5096, "RA_OF_ASC_NODE": 44.0024, "ARG_OF_PERICENTER": 233.0917, "MEAN_ANOMALY": 96.0359, "EPHEMERIS_TYPE": 0, "CLASSIFICATION_TYPE": "U", "NORAD_CAT_ID": 45344, "ELEMENT_SET_NO": 999, "REV_AT_EPOCH": 2145, "BSTAR": 0, "MEAN_MOTION_DOT": -1.18e-06, "MEAN_MOTION_DDOT": 0}, "tle": {"line1": "1 45344U 20017A   25353.56858068 -.00000118  00000+0  00000+0 0  9993", "line2": "2 45344   2.5096  44.0024 0002079 233.0917  96.0359  1.00273166 21451"}}, "geometry": {"type": "Point", "coordinates": [65.35705412678126, 0.9374788984335575]}}, {"type": "Feature", "properties": {"norad_id": 45807, "name": "BEIDOU-3 G3 (C61)", "group": "beidou", "lat": 1.0099012067034745, "lon": 95.94253177508178, "alt_km": 35781.82874137127, "timestamp": "2025-12-22T16:55:17.728627+00:00", "meta": {"OBJECT_NAME": "BEIDOU-3 G3 (C61)", "OBJECT_ID": "2020-040A", "EPOCH": "2025-12-22T06:50:21.967872", "MEAN_MOTION": 1.00269404, "ECCENTRICITY": 0.00065322, "INCLINATION": 2.013, "RA_OF_ASC_NODE": 66.6638, "ARG_OF_PERICENTER": 309.3195, "MEAN_ANOMALY": 288.2645, "EPHEMERIS_TYPE": 0, "CLASSIFICATION_TYPE": "U", "NORAD_CAT_ID": 45807, "ELEMENT_SET_NO": 999, "REV_AT_EPOCH": 2029, "BSTAR": 0, "MEAN_MOTION_DOT": -3.33e-06, "MEAN_MOTION_DDOT": 0}, "tle": {"line1": "1 45807U 20040A   25356.28497648 -.00000333  00000+0  00000+0 0  9997", "line2": "2 45807   2.0130  66.6638 0006532 309.3195 288.2645  1.00269404 20297"}}, "geometry": {"type": "Point", "coordinates": [95.94253177508178, 1.0099012067034745]}}, {"type": "Feature", "properties": {"norad_id": 56564, "name": "BEIDOU-3 G4 (C62)", "group": "beidou", "lat": -0.2895094652285656, "lon": 145.36537718666906, "alt_km": 35776.02687235419, "timestamp": "2025-12-22T16:55:17.728639+00:00", "meta": {"OBJECT_NAME": "BEIDOU-3 G4 (C62)", "OBJECT_ID": "2023-066A", "EPOCH": "2025-12-22T05:22:00.430176", "MEAN_MOTION": 1.00271314, "ECCENTRICITY": 0.0002668, "INCLINATION": 0.7954, "RA_OF_ASC_NODE": 302.7801, "ARG_OF_PERICENTER": 226.6515, "MEAN_ANOMALY": 162.1611, "EPHEMERIS_TYPE": 0, "CLASSIFICATION_TYPE": "U", "NORAD_CAT_ID": 56564, "ELEMENT_SET_NO": 999, "REV_AT_EPOCH": 962, "BSTAR": 0, "MEAN_MOTION_DOT": -8.8e-07, "MEAN_MOTION_DDOT": 0}, "tle": {"line1": "1 56564U 23066A   25356.22361609 -.00000088  00000+0  00000+0 0  9998", "line2": "2 56564   0.7954 302.7801 0002668 226.6515 162.1611  1.00271314  9627"}}, "geometry": {"type": "Point", "coordinates": [145.36537718666906, -0.2895094652285656]}}, {"type": "Feature", "properties": {"norad_id": 58654, "name": "BEIDOU-3 M28 (C50)", "group": "beidou", "lat": 34.57388474288382, "lon": 96.42605182364152, "alt_km": 21528.92368229668, "timestamp": "2025-12-22T16:55:17.728651+00:00", "meta": {"OBJECT_NAME": "BEIDOU-3 M28 (C50)", "OBJECT_ID": "2023-207A", "EPOCH": "2025-12-22T02:28:45.780096", "MEAN_MOTION": 1.86229752, "ECCENTRICITY": 0.00028015, "INCLINATION": 55.5924, "RA_OF_ASC_NODE": 68.2843, "ARG_OF_PERICENTER": 274.1973, "MEAN_ANOMALY": 85.8199, "EPHEMERIS_TYPE": 0, "CLASSIFICATION_TYPE": "U", "NORAD_CAT_ID": 58654, "ELEMENT_SET_NO": 999, "REV_AT_EPOCH": 1354, "BSTAR": 0, "MEAN_MOTION_DOT": -3.2e-07, "MEAN_MOTION_DDOT": 0}, "tle": {"line1": "1 58654U 23207A   25356.10330764 -.00000032  00000+0  00000+0 0  9991", "line2": "2 58654  55.5924  68.2843 0002801 274.1973  85.8199  1.86229752 13540"}}, "geometry": {"type": "Point", "coordinates": [96.42605182364152, 34.57388474288382]}}, {"type": "Feature", "properties": {"norad_id": 58655, "name": "BEIDOU-3 M26 (C48)", "group": "beidou", "lat": 0.7202178177591013, "lon": -112.22331062862666, "alt_km": 21526.246428562423, "timestamp": "2025-12-22T16:55:17.728662+00:00", "meta": {"OBJECT_NAME": "BEIDOU-3 M26 (C48)", "OBJECT_ID": "2023-207B", "EPOCH": "2025-12-21T08:44:02.320800", "MEAN_MOTION": 1.8623129, "ECCENTRICITY": 0.0004111, "INCLINATION": 55.5938, "RA_OF_ASC_NODE": 68.2956, "ARG_OF_PERICENTER": 259.2953, "MEAN_ANOMALY": 100.7044, "EPHEMERIS_TYPE": 0, "CLASSIFICATION_TYPE": "U", "NORAD_CAT_ID": 58655, "ELEMENT_SET_NO": 999, "REV_AT_EPOCH": 1351, "BSTAR": 0, "MEAN_MOTION_DOT": -3.7e-07, "MEAN_MOTION_DDOT": 0}, "tle": {"line1": "1 58655U 23207B   25355.36391575 -.00000037  00000+0  00000+0 0  9991", "line2": "2 58655  55.5938  68.2956 0004111 259.2953 100.7044  1.86231290 13512"}}, "geometry": {"type": "Point", "coordinates": [-112.22331062862666, 0.7202178177591013]}}]}